STAR ONE C4             
1 40733U 15034B   17344.97248008 -.00000273  00000-0  00000-0 0  9990
2 40733   0.0505  69.1146 0001831 229.1191  61.7531  1.00272321  8856
